     2.100          NAVIGATION                              RINEX VERSION / TYPE
fic2rin                                 08/27/2012 00:12:41 PGM / RUN BY / DATE
                                                            END OF HEADER
13 12  8 26  1 59 44.0  .185508280993D-03 -.250111042988D-11  .000000000000D+00
     .800000000000D+01  .837500000000D+02  .386123226439D-08 -.768509049201D-01
     .432133674622D-05  .484855449758D-02  .813975930214D-05  .515363004494D+04
     .718400000000D+04 -.689178705215D-07 -.668956391347D+00 -.447034835815D-07
     .984784302322D+00  .236156250000D+03  .207050262728D+01 -.783175479545D-08
    -.137505727665D-09  .100000000000D+01  .170300000000D+04  .000000000000D+00
     .240000000000D+01  .000000000000D+00 -.111758708954D-07  .800000000000D+01
     .534600000000D+04  .400000000000D+01
13 12  8 26  3 59 44.0  .185490120202D-03 -.250111042988D-11  .000000000000D+00
     .900000000000D+01  .837500000000D+02  .389480509141D-08  .973500665959D+00
     .415369868279D-05  .484842166770D-02  .848993659019D-05  .515362921906D+04
     .143840000000D+05 -.298023223877D-07 -.669012811709D+00 -.115483999252D-06
     .984783551845D+00  .226781250000D+03  .207035359543D+01 -.777853829306D-08
    -.122147945095D-09  .100000000000D+01  .170300000000D+04  .000000000000D+00
     .240000000000D+01  .000000000000D+00 -.111758708954D-07  .900000000000D+01
     .720600000000D+04  .400000000000D+01
14 12  8 26  3 59 44.0  .211027916521D-03  .102318153949D-11  .000000000000D+00
     .180000000000D+02  .104156250000D+03  .408695595241D-08  .123275891288D+01
     .539049506187D-05  .673504674342D-02  .917352735996D-05  .515363652802D+04
     .143840000000D+05 -.121071934700D-06 -.696332207043D+00  .298023223877D-07
     .977559024537D+00  .214062500000D+03 -.205768918530D+01 -.796247452617D-08
    -.133576992589D-09  .100000000000D+01  .170300000000D+04  .000000000000D+00
     .240000000000D+01  .000000000000D+00 -.931322574615D-08  .180000000000D+02
     .720600000000D+04  .400000000000D+01
 1 12  8 26  4  0  0.0  .271090772003D-03  .147792889038D-11  .000000000000D+00
     .710000000000D+02  .259375000000D+01  .487448875631D-08 -.838461047508D+00
     .154599547386D-06  .109698146116D-02  .698119401932D-05  .515363504410D+04
     .144000000000D+05  .186264514923D-08 -.286056101863D+01 -.167638063431D-07
     .960401236658D+00  .243687500000D+03  .354204762370D+00 -.812462413749D-08
     .285726187357D-09  .100000000000D+01  .170300000000D+04  .000000000000D+00
     .240000000000D+01  .000000000000D+00  .838190317154D-08  .710000000000D+02
     .720600000000D+04  .400000000000D+01
 2 12  8 26  4  0  0.0  .400969758630D-03  .113686837722D-11  .000000000000D+00
     .210000000000D+02  .118750000000D+01  .548058543124D-08  .890893367113D-01
     .178813934326D-06  .113937680144D-01  .689178705215D-05  .515373989677D+04
     .144000000000D+05  .987201929092D-07 -.287624806181D+01  .111758708954D-06
     .938936565288D+00  .237468750000D+03 -.274731922042D+01 -.856035657321D-08
     .213937482783D-09  .100000000000D+01  .170300000000D+04  .000000000000D+00
     .240000000000D+01  .000000000000D+00 -.172294676304D-07  .210000000000D+02
     .720600000000D+04  .400000000000D+01
 3 12  8 26  4  0  0.0  .931103713810D-04  .500222085975D-11  .000000000000D+00
     .118000000000D+03 -.565000000000D+02  .508092592667D-08  .259248388313D+00
    -.292062759399D-05  .157402752666D-01  .938028097153D-05  .515373537445D+04
     .144000000000D+05 -.227242708206D-06  .224189892137D+01  .111758708954D-06
     .932064804583D+00  .187812500000D+03  .122466433406D+01 -.848356766036D-08
     .261082303697D-09  .100000000000D+01  .170300000000D+04  .000000000000D+00
     .340000000000D+01  .000000000000D+00 -.465661287308D-08  .118000000000D+03
     .720600000000D+04  .400000000000D+01
 4 12  8 26  4  0  0.0  .285344198346D-03  .113686837722D-10  .000000000000D+00
     .470000000000D+02  .125000000000D+01  .536486632536D-08 -.294374615548D+01
    -.175088644028D-06  .101724270498D-01  .702962279320D-05  .515364166260D+04
     .144000000000D+05  .651925802231D-07 -.285947354238D+01 -.227242708206D-06
     .937983386384D+00  .233062500000D+03  .888512691766D+00 -.825855828782D-08
     .236081262304D-09  .100000000000D+01  .170300000000D+04  .000000000000D+00
     .240000000000D+01  .000000000000D+00 -.651925802231D-08  .470000000000D+02
     .720600000000D+04  .400000000000D+01
 5 12  8 26  4  0  0.0 -.346729997545D-03 -.318323145621D-11  .000000000000D+00
     .430000000000D+02  .150625000000D+02  .502413784694D-08  .225082120168D+01
     .862404704094D-06  .281793146860D-02  .869669020176D-05  .515372950745D+04
     .144000000000D+05 -.707805156708D-07 -.181239522437D+01  .894069671631D-07
     .950042089912D+00  .207593750000D+03  .194991132175D+00 -.812962434577D-08
    -.305369862738D-09  .100000000000D+01  .170300000000D+04  .000000000000D+00
     .240000000000D+01  .000000000000D+00 -.102445483208D-07  .430000000000D+02
     .720600000000D+04  .400000000000D+01
 6 12  8 26  4  0  0.0 -.164113007486D-04 -.773070496507D-11  .000000000000D+00
     .220000000000D+02 -.539062500000D+02  .481984362298D-08  .213145716738D+01
    -.279955565929D-05  .732808420435D-02  .966712832451D-05  .515368953133D+04
     .144000000000D+05  .108033418655D-06  .231923744614D+01  .122934579849D-06
     .938924784409D+00  .180218750000D+03 -.460808356209D+00 -.807997942072D-08
     .287511976028D-09  .100000000000D+01  .170300000000D+04  .000000000000D+00
     .240000000000D+01  .000000000000D+00 -.512227416039D-08  .220000000000D+02
     .720600000000D+04  .400000000000D+01
 7 12  8 26  4  0  0.0  .114904250950D-03  .409272615798D-11  .000000000000D+00
     .810000000000D+02  .301250000000D+02  .418660296025D-08 -.125847782170D+01
     .150315463543D-05  .588391860947D-02  .348500907421D-05  .515372553444D+04
     .144000000000D+05  .298023223877D-07  .300027753497D+00 -.126659870148D-06
     .976082115109D+00  .321437500000D+03 -.300204009086D+01 -.809890878063D-08
     .135719938995D-10  .100000000000D+01  .170300000000D+04  .000000000000D+00
     .240000000000D+01  .000000000000D+00 -.107102096081D-07  .810000000000D+02
     .720600000000D+04  .400000000000D+01
 8 12  8 26  4  0  0.0  .207545235753D-05  .113686837722D-12  .000000000000D+00
     .830000000000D+02  .178125000000D+02  .371801201298D-08 -.194351757977D+01
     .810250639915D-06  .126336331014D-01  .372342765331D-05  .515365913773D+04
     .144000000000D+05  .391155481339D-07  .385269467905D+00 -.176951289177D-06
     .998368383216D+00  .327218750000D+03 -.294447523289D+01 -.785747015231D-08
     .103575742917D-09  .100000000000D+01  .170300000000D+04  .000000000000D+00
     .340000000000D+01  .000000000000D+00 -.419095158577D-08  .830000000000D+02
     .720600000000D+04  .400000000000D+01
 9 12  8 26  4  0  0.0  .181212555617D-03  .261479726760D-11  .000000000000D+00
     .340000000000D+02  .310312500000D+02  .399873799206D-08 -.192445875032D+01
     .187754631042D-05  .173837644979D-01  .299513339996D-05  .515361384392D+04
     .144000000000D+05  .195577740669D-06  .274953421005D+00  .275671482086D-06
     .984797180390D+00  .334906250000D+03  .164396336115D+01 -.796568894578D-08
    -.625026034843D-10  .100000000000D+01  .170300000000D+04  .000000000000D+00
     .340000000000D+01  .000000000000D+00 -.558793544769D-08  .340000000000D+02
     .720600000000D+04  .400000000000D+01
10 12  8 26  4  0  0.0 -.494862906635D-04 -.136424205266D-11  .000000000000D+00
     .880000000000D+02  .117187500000D+02  .501020869530D-08  .248169000476D+01
     .523403286934D-06  .115120261908D-01  .867992639542D-05  .515371775627D+04
     .144000000000D+05 -.104308128357D-06 -.179134721986D+01 -.165775418282D-06
     .944907117254D+00  .204375000000D+03  .754721071173D+00 -.802033407911D-08
    -.309298597814D-09  .100000000000D+01  .170300000000D+04  .000000000000D+00
     .340000000000D+01  .000000000000D+00 -.232830643654D-08  .880000000000D+02
     .720600000000D+04  .400000000000D+01
11 12  8 26  4  0  0.0 -.296043697745D-03 -.397903932026D-11  .000000000000D+00
     .750000000000D+02  .108125000000D+02  .646241204254D-08 -.114616157373D+01
     .866129994392D-06  .133550397586D-01  .690110027790D-05  .515367285156D+04
     .144000000000D+05  .156462192535D-06 -.313709079384D+01  .266358256340D-06
     .888645799756D+00  .206093750000D+03  .108028776532D+01 -.897323091394D-08
     .405374028313D-09  .100000000000D+01  .170300000000D+04  .000000000000D+00
     .240000000000D+01  .000000000000D+00 -.121071934700D-07  .750000000000D+02
     .720600000000D+04  .400000000000D+01
12 12  8 26  4  0  0.0  .874390825629D-04  .204636307899D-11  .000000000000D+00
     .670000000000D+02 -.100375000000D+03  .386087510666D-08 -.164359286251D+01
    -.510737299919D-05  .399572704919D-02  .694580376148D-05  .515373859596D+04
     .144000000000D+05 -.689178705215D-07  .135695215386D+01 -.447034835815D-07
     .980646773543D+00  .255500000000D+03  .140884947555D+00 -.789068582159D-08
    -.760745973838D-10  .100000000000D+01  .170300000000D+04  .000000000000D+00
     .240000000000D+01  .000000000000D+00 -.121071934700D-07  .670000000000D+02
     .720600000000D+04  .400000000000D+01
15 12  8 26  4  0  0.0 -.942908227444D-04 -.568434188608D-12  .000000000000D+00
     .450000000000D+02  .900625000000D+02  .487306012537D-08  .801615609479D+00
     .476278364658D-05  .456050666980D-02  .815466046333D-05  .515362116432D+04
     .144000000000D+05  .670552253723D-07 -.787100398782D+00  .428408384323D-07
     .944262501421D+00  .209000000000D+03  .351440613769D-01 -.826570144250D-08
    -.229652423088D-09  .100000000000D+01  .170300000000D+04  .000000000000D+00
     .240000000000D+01  .000000000000D+00 -.102445483208D-07  .450000000000D+02
     .720600000000D+04  .400000000000D+01
